[{"OBJECT_NAME":"TIANQI-12","OBJECT_ID":"2021-039D","EPOCH":"2026-03-09T20:15:13.550976","MEAN_MOTION":15.10910107,"ECCENTRICITY":0.00035548,"INCLINATION":34.9981,"RA_OF_ASC_NODE":219.5618,"ARG_OF_PERICENTER":141.9564,"MEAN_ANOMALY":218.1398,"EPHEMERIS_TYPE":0,"CLASSIFICATION_TYPE":"U","NORAD_CAT_ID":48426,"ELEMENT_SET_NO":999,"REV_AT_EPOCH":26518,"BSTAR":0.00053797391,"MEAN_MOTION_DOT":9.139e-5,"MEAN_MOTION_DDOT":0},{"OBJECT_NAME":"SCOUT X-1 DEB","OBJECT_ID":"1961-004G","EPOCH":"2026-03-08T23:39:42.146208","MEAN_MOTION":14.27565327,"ECCENTRICITY":0.03815607,"INCLINATION":38.8221,"RA_OF_ASC_NODE":287.5839,"ARG_OF_PERICENTER":202.4156,"MEAN_ANOMALY":155.9515,"EPHEMERIS_TYPE":0,"CLASSIFICATION_TYPE":"U","NORAD_CAT_ID":4026,"ELEMENT_SET_NO":999,"REV_AT_EPOCH":11947,"BSTAR":0.0031867079,"MEAN_MOTION_DOT":0.00017371,"MEAN_MOTION_DDOT":0}]
